      2.10          N: GNSS NAV DATA                        RINEX VERSION / TYPE
fic2rin                                 11/15/2019 00:19:22 PGM / RUN BY / DATE
                                                            END OF HEADER
22 19 11 14 12  0  0.0-7.715602405369e-04-2.614797267597e-12 0.000000000000e+00
    6.600000000000e+01 2.971875000000e+01 5.456655863048e-09-1.945557295722e+00
    1.640990376472e-06 6.861635949463e-03 6.968155503273e-06 5.153648447037e+03
    3.888000000000e+05-3.539025783539e-08 1.258669191870e+00 1.434236764908e-07
    9.284497438300e-01 2.261562500000e+02-1.263456929218e+00-8.346419090428e-09
    4.682337895311e-10 1.000000000000e+00 2.079000000000e+03 0.000000000000e+00
    2.400000000000e+00 0.000000000000e+00-1.816079020500e-08 6.600000000000e+01
    3.816000000000e+05 4.000000000000e+00
25 19 11 14 12  0  0.0-1.710420474410e-05-3.410605131648e-13 0.000000000000e+00
    6.200000000000e+01 1.156562500000e+02 4.487329772440e-09 1.408601663079e+00
    5.854293704033e-06 8.565825060941e-03 2.842396497726e-06 5.153636703491e+03
    3.888000000000e+05-1.303851604462e-07-1.801793955905e+00 2.421438694000e-08
    9.679374313478e-01 3.272187500000e+02 8.889006327707e-01-8.427493896091e-09
    2.825117677491e-10 1.000000000000e+00 2.079000000000e+03 0.000000000000e+00
    2.400000000000e+00 0.000000000000e+00 5.587935447693e-09 6.200000000000e+01
    3.816000000000e+05 4.000000000000e+00
24 19 11 14 12  0  0.0-4.872679710388e-06-5.684341886081e-13 0.000000000000e+00
    6.600000000000e+01 8.262500000000e+01 4.495901558060e-09-2.936423930118e+00
    4.170462489128e-06 9.053298737854e-03 1.198425889015e-05 5.153681173325e+03
    3.888000000000e+05-9.313225746155e-09-2.907253350932e+00-1.210719347000e-07
    9.380386086161e-01 1.354375000000e+02 6.221828378297e-01-7.822825852097e-09
   -2.692969315838e-10 1.000000000000e+00 2.079000000000e+03 0.000000000000e+00
    3.400000000000e+00 0.000000000000e+00 2.793967723846e-09 6.600000000000e+01
    3.816000000000e+05 4.000000000000e+00
30 19 11 14 12  0  0.0-8.363090455532e-05-8.412825991400e-12 0.000000000000e+00
    5.400000000000e+01 7.956250000000e+01 4.594119934964e-09 2.372247097591e+00
    4.079192876816e-06 4.165370832197e-03 1.093372702599e-05 5.153737812042e+03
    3.888000000000e+05-6.332993507385e-08-2.812842332254e+00-9.313225746155e-09
    9.401933552842e-01 1.592500000000e+02-2.910462620153e+00-7.946402428129e-09
   -2.235807416067e-10 1.000000000000e+00 2.079000000000e+03 0.000000000000e+00
    2.400000000000e+00 0.000000000000e+00 3.725290298462e-09 5.400000000000e+01
    3.816000000000e+05 4.000000000000e+00
21 19 11 14 12  0  0.0-8.628377690911e-05 6.025402399246e-12 0.000000000000e+00
    4.900000000000e+01-1.081875000000e+02 4.517331022112e-09 1.234676476637e+00
   -5.898997187614e-06 2.455018914770e-02 1.096539199352e-05 5.153630661011e+03
    3.888000000000e+05-8.754432201385e-08 2.277699007878e-01-6.351619958878e-07
    9.510066225231e-01 1.707812500000e+02-1.397990145410e+00-8.115695194138e-09
    2.610823036973e-10 1.000000000000e+00 2.079000000000e+03 0.000000000000e+00
    2.400000000000e+00 0.000000000000e+00-1.024454832077e-08 4.900000000000e+01
    3.816000000000e+05 4.000000000000e+00
28 19 11 14 12  0  0.0 7.551307789981e-04-1.591615728103e-12 0.000000000000e+00
    3.100000000000e+01 7.665625000000e+01 4.291250176366e-09-2.463057574977e-01
    3.982335329056e-06 1.912183640525e-02 2.749264240265e-06 5.153706653595e+03
    3.888000000000e+05-3.371387720108e-07-1.712522633647e+00 5.587935447693e-08
    9.797979723812e-01 3.403437500000e+02-1.441640952532e+00-8.472495770600e-09
    3.350139546759e-10 1.000000000000e+00 2.079000000000e+03 0.000000000000e+00
    2.400000000000e+00 0.000000000000e+00-1.117587089539e-08 3.100000000000e+01
    3.816000000000e+05 4.000000000000e+00
27 19 11 14 12  0  0.0-1.195319928229e-04-1.193711796077e-11 0.000000000000e+00
    6.300000000000e+01-9.531250000000e+01 4.307322274405e-09-1.003701756824e+00
   -4.945322871208e-06 7.341520627961e-03 2.872198820114e-06 5.153654476166e+03
    3.888000000000e+05 2.291053533554e-07-7.582829914274e-01 3.725290298462e-09
    9.785501851830e-01 3.311875000000e+02 5.019304830993e-01-8.192484106990e-09
   -1.967939115420e-10 1.000000000000e+00 2.079000000000e+03 0.000000000000e+00
    2.400000000000e+00 0.000000000000e+00 1.862645149231e-09 6.300000000000e+01
    3.816000000000e+05 4.000000000000e+00
17 19 11 14 12  0  0.0 1.627667807043e-04 6.934897101019e-12 0.000000000000e+00
    8.300000000000e+01-1.040312500000e+02 4.242319566781e-09-1.086290080159e+00
   -5.098059773445e-06 1.337151741609e-02 4.185363650322e-06 5.153597837448e+03
    3.888000000000e+05-1.806765794754e-07-7.010802451834e-01 2.272427082062e-07
    9.842796350833e-01 3.133125000000e+02-1.690792230523e+00-8.192841264724e-09
   -2.000083311498e-10 1.000000000000e+00 2.079000000000e+03 0.000000000000e+00
    3.400000000000e+00 0.000000000000e+00-1.117587089539e-08 8.300000000000e+01
    3.816000000000e+05 4.000000000000e+00
26 19 11 14 12  0  0.0 8.398853242397e-05 8.412825991400e-12 0.000000000000e+00
    4.800000000000e+01 1.137812500000e+02 4.801628578532e-09 8.775545971000e-01
    5.943700671196e-06 4.171563545242e-03 2.941116690636e-06 5.153703868866e+03
    3.888000000000e+05 2.048909664154e-08-1.833524028767e+00 3.352761268616e-08
    9.491537109647e-01 3.140625000000e+02 1.230524296733e-01-8.495711023322e-09
    2.789401904071e-10 1.000000000000e+00 2.079000000000e+03 0.000000000000e+00
    2.400000000000e+00 0.000000000000e+00 7.450580596924e-09 4.800000000000e+01
    3.816000000000e+05 4.000000000000e+00
32 19 11 14 12  0  0.0 1.245993189514e-04 1.216449163621e-11 0.000000000000e+00
    1.170000000000e+02-2.450000000000e+01 4.971635660009e-09-2.400389075669e-01
   -1.369044184685e-06 3.277414594777e-03 6.666406989098e-06 5.153639783859e+03
    3.888000000000e+05 3.911554813385e-08 2.377537260987e+00 3.725290298462e-08
    9.566501727996e-01 2.494687500000e+02-2.538838978526e+00-8.211056309168e-09
   -5.871673150184e-10 1.000000000000e+00 2.079000000000e+03 0.000000000000e+00
    2.400000000000e+00 0.000000000000e+00 4.656612873077e-10 1.170000000000e+02
    3.816000000000e+05 4.000000000000e+00
20 19 11 14 12  0  0.0 5.274605937302e-04 1.136868377216e-13 0.000000000000e+00
    8.200000000000e+01 2.256250000000e+01 5.473442276555e-09 2.669916407707e+00
    1.274049282074e-06 5.051437765360e-03 7.528811693192e-06 5.153618629456e+03
    3.888000000000e+05 8.009374141693e-08 1.210539015900e+00 1.881271600723e-07
    9.317719137545e-01 2.183437500000e+02 2.483075791948e+00-8.386420756658e-09
    5.421654405097e-10 1.000000000000e+00 2.079000000000e+03 0.000000000000e+00
    2.400000000000e+00 0.000000000000e+00-8.381903171539e-09 8.200000000000e+01
    3.816000000000e+05 4.000000000000e+00
18 19 11 14 12  0  0.0 1.000803895295e-04 2.501110429876e-12 0.000000000000e+00
    6.600000000000e+01-9.237500000000e+01 4.307322274405e-09 2.797947624515e+00
   -4.796311259270e-06 1.563433639240e-02 1.070462167263e-05 5.153669404984e+03
    3.888000000000e+05 1.769512891769e-07 2.378399705323e-01-1.620501279831e-07
    9.566455163314e-01 1.677187500000e+02 1.444627504180e+00-7.557100497855e-09
    1.610781381224e-10 1.000000000000e+00 2.079000000000e+03 0.000000000000e+00
    2.400000000000e+00 6.300000000000e+01-5.587935447693e-09 6.600000000000e+01
    3.816000000000e+05 4.000000000000e+00
 4 19 11 14 12  0  0.0-8.956994861364e-06-4.092726157978e-12 0.000000000000e+00
    6.100000000000e+01-2.387500000000e+01 4.806271629077e-09 2.302713520187e+00
   -1.290813088417e-06 1.311740954407e-03 6.981194019318e-06 5.150595216751e+03
    3.888000000000e+05 1.303851604462e-08 2.416494403709e+00-1.490116119385e-08
    9.598237921707e-01 2.432812500000e+02-1.277445079789e+00-8.089979837275e-09
   -5.803813180686e-10 1.000000000000e+00 2.079000000000e+03 0.000000000000e+00
    9.600000000000e+01 6.300000000000e+01-4.190951585770e-09 3.170000000000e+02
    3.820200000000e+05 4.000000000000e+00
 5 19 11 14 11 59 44.0-3.442633897066e-06-4.547473508865e-13 0.000000000000e+00
    0.000000000000e+00 2.481250000000e+01 5.134142429069e-09-3.552021711390e-01
    1.348555088043e-06 5.839945049956e-03 6.787478923798e-06 5.153538572311e+03
    3.887840000000e+05-5.587935447693e-09 1.308821784789e+00 8.568167686462e-08
    9.505814999922e-01 2.418125000000e+02 8.015624382587e-01-8.317846471693e-09
    4.393040130612e-10 1.000000000000e+00 2.079000000000e+03 0.000000000000e+00
    2.400000000000e+00 0.000000000000e+00-1.117587089539e-08 0.000000000000e+00
    3.829500000000e+05 4.000000000000e+00
17 19 11 14 11 59 44.0 1.627663150430e-04 6.934897101019e-12 0.000000000000e+00
    2.000000000000e+00-1.040312500000e+02 4.242676724515e-09-1.088623753412e+00
   -5.098059773445e-06 1.337151869666e-02 4.185363650322e-06 5.153597820282e+03
    3.887840000000e+05-1.806765794754e-07-7.010800857254e-01 2.272427082062e-07
    9.842796160654e-01 3.133125000000e+02-1.690792300743e+00-8.192841264724e-09
   -2.000083311498e-10 1.000000000000e+00 2.079000000000e+03 0.000000000000e+00
    2.400000000000e+00 0.000000000000e+00-1.117587089539e-08 2.000000000000e+00
    3.829500000000e+05 4.000000000000e+00
32 19 11 14 11 59 44.0 1.245988532901e-04 1.216449163621e-11 0.000000000000e+00
    5.000000000000e+00-2.450000000000e+01 4.971635660009e-09-2.423708443357e-01
   -1.369044184685e-06 3.277421346866e-03 6.666406989098e-06 5.153639783859e+03
    3.887840000000e+05 3.911554813385e-08 2.377537401427e+00 3.725290298462e-08
    9.566501859659e-01 2.494687500000e+02-2.538840801321e+00-8.211056309168e-09
   -5.871673150184e-10 1.000000000000e+00 2.079000000000e+03 0.000000000000e+00
    2.400000000000e+00 0.000000000000e+00 4.656612873077e-10 5.000000000000e+00
    3.831300000000e+05 4.000000000000e+00
